{"type": "FeatureCollection", "features": [ {"type": "Feature", "properties": {"norad_id": 30306, "name": "FENGYUN 1C DEB", "group": "fengyun-1c-debris", "lat": 44.948828101569795, "lon": 18.730639483077532, "alt_km": 737.8086305332581, "timestamp": "2025-12-12T07:43:20.788769+00:00", "meta": {"OBJECT_NAME": "FENGYUN 1C DEB", "OBJECT_ID": "1999-025ZT", "EPOCH": "2025-12-11T19:44:39.441408", "MEAN_MOTION": 14.28196542, "ECCENTRICITY": 0.01133691, "INCLINATION": 98.5872, "RA_OF_ASC_NODE": 26.915, "ARG_OF_PERICENTER": 0.217, "MEAN_ANOMALY": 359.9041, "EPHEMERIS_TYPE": 0, "CLASSIFICATION_TYPE": "U", "NORAD_CAT_ID": 30306, "ELEMENT_SET_NO": 999, "REV_AT_EPOCH": 97668, "BSTAR": 0.001546262, "MEAN_MOTION_DOT": 4.083e-05, "MEAN_MOTION_DDOT": 0}, "tle": {"line1": "1 30306U 99025ZT  25345.82267872  .00004083  00000+0  15463-2 0  9993", "line2": "2 30306  98.5872  26.9150 0113369   0.2170 359.9041 14.28196542976688"}}, "geometry": {"type": "Point", "coordinates": [18.730639483077532, 44.948828101569795]}}, {"type": "Feature", "properties": {"norad_id": 30309, "name": "FENGYUN 1C DEB", "group": "fengyun-1c-debris", "lat": 0.7759505241848017, "lon": 43.3616988014121, "alt_km": 985.6362752082587, "timestamp": "2025-12-12T07:43:20.788780+00:00", "meta": {"OBJECT_NAME": "FENGYUN 1C DEB", "OBJECT_ID": "1999-025ZW", "EPOCH": "2025-12-11T02:25:26.650560", "MEAN_MOTION": 13.93517739, "ECCENTRICITY": 0.00933236, "INCLINATION": 99.2262, "RA_OF_ASC_NODE": 42.2703, "ARG_OF_PERICENTER": 196.2807, "MEAN_ANOMALY": 163.5349, "EPHEMERIS_TYPE": 0, "CLASSIFICATION_TYPE": "U", "NORAD_CAT_ID": 30309, "ELEMENT_SET_NO": 999, "REV_AT_EPOCH": 96010, "BSTAR": 0.00051391392, "MEAN_MOTION_DOT": 6.54e-06, "MEAN_MOTION_DDOT": 0}, "tle": {"line1": "1 30309U 99025ZW  25345.10100290  .00000654  00000+0  51391-3 0  9998", "line2": "2 30309  99.2262  42.2703 0093323 196.2807 163.5349 13.93517739960103"}}, "geometry": {"type": "Point", "coordinates": [43.3616988014121, 0.7759505241848017]}}, {"type": "Feature", "properties": {"norad_id": 30310, "name": "FENGYUN 1C DEB", "group": "fengyun-1c-debris", "lat": -73.20078537805338, "lon": 155.63566378925302, "alt_km": 907.926531000584, "timestamp": "2025-12-12T07:43:20.788791+00:00", "meta": {"OBJECT_NAME": "FENGYUN 1C DEB", "OBJECT_ID": "1999-025ZX", "EPOCH": "2025-12-11T23:40:47.152704", "MEAN_MOTION": 14.08382708, "ECCENTRICITY": 0.0240891, "INCLINATION": 98.6653, "RA_OF_ASC_NODE": 5.6529, "ARG_OF_PERICENTER": 359.6373, "MEAN_ANOMALY": 0.4587, "EPHEMERIS_TYPE": 0, "CLASSIFICATION_TYPE": "U", "NORAD_CAT_ID": 30310, "ELEMENT_SET_NO": 999, "REV_AT_EPOCH": 96721, "BSTAR": 0.0011124899, "MEAN_MOTION_DOT": 2.444e-05, "MEAN_MOTION_DDOT": 0}, "tle": {"line1": "1 30310U 99025ZX  25345.98665686  .00002444  00000+0  11125-2 0  9990", "line2": "2 30310  98.6653   5.6529 0240891 359.6373   0.4587 14.08382708967213"}}, "geometry": {"type": "Point", "coordinates": [155.63566378925302, -73.20078537805338]}}, {"type": "Feature", "properties": {"norad_id": 30311, "name": "FENGYUN 1C DEB", "group": "fengyun-1c-debris", "lat": 37.11432457020377, "lon": -90.97768087446437, "alt_km": 899.0796662749835, "timestamp": "2025-12-12T07:43:20.788803+00:00", "meta": {"OBJECT_NAME": "FENGYUN 1C DEB", "OBJECT_ID": "1999-025ZY", "EPOCH": "2025-12-11T04:52:57.531360", "MEAN_MOTION": 13.7788649, "ECCENTRICITY": 0.01652542, "INCLINATION": 99.1396, "RA_OF_ASC_NODE": 80.9489, "ARG_OF_PERICENTER": 201.0566, "MEAN_ANOMALY": 158.3728, "EPHEMERIS_TYPE": 0, "CLASSIFICATION_TYPE": "U", "NORAD_CAT_ID": 30311, "ELEMENT_SET_NO": 999, "REV_AT_EPOCH": 94939, "BSTAR": 0.00064559127, "MEAN_MOTION_DOT": 6.73e-06, "MEAN_MOTION_DDOT": 0}, "tle": {"line1": "1 30311U 99025ZY  25345.20344365  .00000673  00000+0  64559-3 0  9996", "line2": "2 30311  99.1396  80.9489 0165254 201.0566 158.3728 13.77886490949399"}}, "geometry": {"type": "Point", "coordinates": [-90.97768087446437, 37.11432457020377]}}, {"type": "Feature", "properties": {"norad_id": 30312, "name": "FENGYUN 1C DEB", "group": "fengyun-1c-debris", "lat": 42.53336169523138, "lon": -106.1927867665284, "alt_km": 733.3328380046278, "timestamp": "2025-12-12T07:43:20.788822+00:00", "meta": {"OBJECT_NAME": "FENGYUN 1C DEB", "OBJECT_ID": "1999-025ZZ", "EPOCH": "2025-12-11T04:45:57.595392", "MEAN_MOTION": 14.45783379, "ECCENTRICITY": 0.00118661, "INCLINATION": 98.8655, "RA_OF_ASC_NODE": 64.4017, "ARG_OF_PERICENTER": 212.9755, "MEAN_ANOMALY": 201.2193, "EPHEMERIS_TYPE": 0, "CLASSIFICATION_TYPE": "U", "NORAD_CAT_ID": 30312, "ELEMENT_SET_NO": 999, "REV_AT_EPOCH": 97898, "BSTAR": 0.0039264251, "MEAN_MOTION_DOT": 0.00013916, "MEAN_MOTION_DDOT": 0}, "tle": {"line1": "1 30312U 99025ZZ  25345.19858328  .00013916  00000+0  39264-2 0  9992", "line2": "2 30312  98.8655  64.4017 0011866 212.9755 201.2193 14.45783379978987"}}, "geometry": {"type": "Point", "coordinates": [-106.1927867665284, 42.53336169523138]}}, {"type": "Feature", "properties": {"norad_id": 30313, "name": "FENGYUN 1C DEB", "group": "fengyun-1c-debris", "lat": -69.52919373504453, "lon": -132.25709625281218, "alt_km": 811.0769319854144, "timestamp": "2025-12-12T07:43:20.788842+00:00", "meta": {"OBJECT_NAME": "FENGYUN 1C DEB", "OBJECT_ID": "1999-025AAA", "EPOCH": "2025-12-11T17:50:03.224832", "MEAN_MOTION": 14.2544027, "ECCENTRICITY": 0.00563383, "INCLINATION": 98.8748, "RA_OF_ASC_NODE": 71.9004, "ARG_OF_PERICENTER": 338.9634, "MEAN_ANOMALY": 185.264, "EPHEMERIS_TYPE": 0, "CLASSIFICATION_TYPE": "U", "NORAD_CAT_ID": 30313, "ELEMENT_SET_NO": 999, "REV_AT_EPOCH": 97075, "BSTAR": 0.002450735, "MEAN_MOTION_DOT": 5.84e-05, "MEAN_MOTION_DDOT": 0}, "tle": {"line1": "1 30313U 99025AAA 25345.74309288  .00005840  00000+0  24507-2 0  9991", "line2": "2 30313  98.8748  71.9004 0056338 338.9634 185.2640 14.25440270970751"}}, "geometry": {"type": "Point", "coordinates": [-132.25709625281218, -69.52919373504453]}}, {"type": "Feature", "properties": {"norad_id": 30314, "name": "FENGYUN 1C DEB", "group": "fengyun-1c-debris", "lat": -49.044936983253926, "lon": -172.99790448086395, "alt_km": 827.4350875276241, "timestamp": "2025-12-12T07:43:20.788864+00:00", "meta": {"OBJECT_NAME": "FENGYUN 1C DEB", "OBJECT_ID": "1999-025AAB", "EPOCH": "2025-12-11T11:23:18.286944", "MEAN_MOTION": 14.0118585, "ECCENTRICITY": 0.01424052, "INCLINATION": 98.3809, "RA_OF_ASC_NODE": 176.4445, "ARG_OF_PERICENTER": 1.4637, "MEAN_ANOMALY": 358.6919, "EPHEMERIS_TYPE": 0, "CLASSIFICATION_TYPE": "U", "NORAD_CAT_ID": 30314, "ELEMENT_SET_NO": 999, "REV_AT_EPOCH": 96091, "BSTAR": 0.0016680196, "MEAN_MOTION_DOT": 2.699e-05, "MEAN_MOTION_DDOT": 0}, "tle": {"line1": "1 30314U 99025AAB 25345.47451721  .00002699  00000+0  16680-2 0  9994", "line2": "2 30314  98.3809 176.4445 0142405   1.4637 358.6919 14.01185850960917"}}, "geometry": {"type": "Point", "coordinates": [-172.99790448086395, -49.044936983253926]}}, {"type": "Feature", "properties": {"norad_id": 30315, "name": "FENGYUN 1C DEB", "group": "fengyun-1c-debris", "lat": 81.39232049680588, "lon": -93.77577192283385, "alt_km": 820.284174334287, "timestamp": "2025-12-12T07:43:20.788884+00:00", "meta": {"OBJECT_NAME": "FENGYUN 1C DEB", "OBJECT_ID": "1999-025AAC", "EPOCH": "2025-12-12T00:48:38.971296", "MEAN_MOTION": 14.1906262, "ECCENTRICITY": 0.00353087, "INCLINATION": 98.6021, "RA_OF_ASC_NODE": 355.5652, "ARG_OF_PERICENTER": 2.3177, "MEAN_ANOMALY": 56.8494, "EPHEMERIS_TYPE": 0, "CLASSIFICATION_TYPE": "U", "NORAD_CAT_ID": 30315, "ELEMENT_SET_NO": 999, "REV_AT_EPOCH": 97697, "BSTAR": 0.00047911469, "MEAN_MOTION_DOT": 9.65e-06, "MEAN_MOTION_DDOT": 0}, "tle": {"line1": "1 30315U 99025AAC 25346.03378439  .00000965  00000+0  47911-3 0  9998", "line2": "2 30315  98.6021 355.5652 0035308   2.3177  56.8494 14.19062620976975"}}, "geometry": {"type": "Point", "coordinates": [-93.77577192283385, 81.39232049680588]}}, {"type": "Feature", "properties": {"norad_id": 30316, "name": "FENGYUN 1C DEB", "group": "fengyun-1c-debris", "lat": 80.92319052020248, "lon": 16.432104462409054, "alt_km": 680.9378279000712, "timestamp": "2025-12-12T07:43:20.788905+00:00", "meta": {"OBJECT_NAME": "FENGYUN 1C DEB", "OBJECT_ID": "1999-025AAD", "EPOCH": "2025-12-11T19:46:51.721536", "MEAN_MOTION": 14.56039159, "ECCENTRICITY": 0.00356933, "INCLINATION": 98.6476, "RA_OF_ASC_NODE": 88.2045, "ARG_OF_PERICENTER": 42.6104, "MEAN_ANOMALY": 317.7852, "EPHEMERIS_TYPE": 0, "CLASSIFICATION_TYPE": "U", "NORAD_CAT_ID": 30316, "ELEMENT_SET_NO": 999, "REV_AT_EPOCH": 98323, "BSTAR": 0.0032499622, "MEAN_MOTION_DOT": 0.00014413, "MEAN_MOTION_DDOT": 0}, "tle": {"line1": "1 30316U 99025AAD 25345.82420974  .00014413  00000+0  32500-2 0  9997", "line2": "2 30316  98.6476  88.2045 0035693  42.6104 317.7852 14.56039159983236"}}, "geometry": {"type": "Point", "coordinates": [16.432104462409054, 80.92319052020248]}}, {"type": "Feature", "properties": {"norad_id": 30317, "name": "FENGYUN 1C DEB", "group": "fengyun-1c-debris", "lat": 76.94480935749982, "lon": -151.3582420922478, "alt_km": 880.0569170006365, "timestamp": "2025-12-12T07:43:20.788927+00:00", "meta": {"OBJECT_NAME": "FENGYUN 1C DEB", "OBJECT_ID": "1999-025AAE", "EPOCH": "2025-12-11T22:42:54.979488", "MEAN_MOTION": 14.0694657, "ECCENTRICITY": 0.00241386, "INCLINATION": 98.7865, "RA_OF_ASC_NODE": 346.4418, "ARG_OF_PERICENTER": 279.0894, "MEAN_ANOMALY": 80.7544, "EPHEMERIS_TYPE": 0, "CLASSIFICATION_TYPE": "U", "NORAD_CAT_ID": 30317, "ELEMENT_SET_NO": 999, "REV_AT_EPOCH": 97002, "BSTAR": 0.00030668758, "MEAN_MOTION_DOT": 4.7e-06, "MEAN_MOTION_DDOT": 0}, "tle": {"line1": "1 30317U 99025AAE 25345.94646967  .00000470  00000+0  30669-3 0  9996", "line2": "2 30317  98.7865 346.4418 0024138 279.0894  80.7544 14.06946570970024"}}, "geometry": {"type": "Point", "coordinates": [-151.3582420922478, 76.94480935749982]}}]}